{
    "links": {
        "self": "http://www.neowsapp.com/rest/v1/neo/3767011?api_key=iIulBulltgU6a56xZRHN4H3l9WmuAYTsLGpBGhQ2"
    },
    "id": "3767011",
    "neo_reference_id": "3767011",
    "name": "(2017 BP6)",
    "designation": "2017 BP6",
    "nasa_jpl_url": "http://ssd.jpl.nasa.gov/sbdb.cgi?sstr=3767011",
    "absolute_magnitude_h": 25.4,
    "estimated_diameter": {
        "kilometers": {
            "estimated_diameter_min": 0.022108281,
            "estimated_diameter_max": 0.0494356193
        },
        "meters": {
            "estimated_diameter_min": 22.1082810359,
            "estimated_diameter_max": 49.435619262
        },
        "miles": {
            "estimated_diameter_min": 0.0137374447,
            "estimated_diameter_max": 0.0307178602
        },
        "feet": {
            "estimated_diameter_min": 72.5337327539,
            "estimated_diameter_max": 162.1903570994
        }
    },
    "is_potentially_hazardous_asteroid": false,
    "close_approach_data": [
        {
            "close_approach_date": "2017-01-22",
            "close_approach_date_full": "2017-Jan-22 09:56",
            "epoch_date_close_approach": 1485078960000,
            "relative_velocity": {
                "kilometers_per_second": "11.9464344183",
                "kilometers_per_hour": "43007.163906002",
                "miles_per_hour": "26722.9791503711"
            },
            "miss_distance": {
                "astronomical": "0.0826534849",
                "lunar": "32.1522056261",
                "kilometers": "12364785.289117163",
                "miles": "7683121.3075883294"
            },
            "orbiting_body": "Earth"
        }
    ],
    "orbital_data": {
        "orbit_id": "5",
        "orbit_determination_date": "2019-07-17 06:11:41",
        "first_observation_date": "2017-01-26",
        "last_observation_date": "2017-01-31",
        "data_arc_in_days": 5,
        "observations_used": 44,
        "orbit_uncertainty": "8",
        "minimum_orbit_intersection": ".0817611",
        "jupiter_tisserand_invariant": "4.378",
        "epoch_osculation": "2457782.5",
        "eccentricity": ".3309295528119336",
        "semi_major_axis": "1.521537056788597",
        "inclination": "20.15353166123672",
        "ascending_node_longitude": "127.5107294474792",
        "orbital_period": "685.5233116961915",
        "perihelion_distance": "1.018015478998761",
        "perihelion_argument": "322.1703243579449",
        "aphelion_distance": "2.025058634578433",
        "perihelion_time": "2457745.267614161707",
        "mean_anomaly": "19.55244799570825",
        "mean_motion": ".5251462552152331",
        "equinox": "J2000",
        "orbit_class": {
            "orbit_class_type": "AMO",
            "orbit_class_description": "Near-Earth asteroid orbits similar to that of 1221 Amor",
            "orbit_class_range": "1.017 AU < q (perihelion) < 1.3 AU"
        }
    },
    "is_sentry_object": false
}